{"type": "FeatureCollection", "features": [ {"type": "Feature", "properties": {"norad_id": 33867, "name": "IRIDIUM 33 DEB", "group": "iridium-33-debris", "lat": -86.04839918064907, "lon": -80.79285313152019, "alt_km": 334.8847891499154, "timestamp": "2025-12-20T05:41:50.415715+00:00", "meta": {"OBJECT_NAME": "IRIDIUM 33 DEB", "OBJECT_ID": "1997-051AL", "EPOCH": "2025-12-19T05:47:32.215776", "MEAN_MOTION": 15.81283525, "ECCENTRICITY": 0.0013617, "INCLINATION": 86.3654, "RA_OF_ASC_NODE": 346.6955, "ARG_OF_PERICENTER": 94.4725, "MEAN_ANOMALY": 265.8107, "EPHEMERIS_TYPE": 0, "CLASSIFICATION_TYPE": "U", "NORAD_CAT_ID": 33867, "ELEMENT_SET_NO": 999, "REV_AT_EPOCH": 89613, "BSTAR": 0.0071362, "MEAN_MOTION_DOT": 0.01596226, "MEAN_MOTION_DDOT": 0}, "tle": {"line1": "1 33867U 97051AL  25353.24134509  .01596226  00000+0  71362-2 0  9996", "line2": "2 33867  86.3654 346.6955 0013617  94.4725 265.8107 15.81283525896134"}}, "geometry": {"type": "Point", "coordinates": [-80.79285313152019, -86.04839918064907]}}, {"type": "Feature", "properties": {"norad_id": 33870, "name": "IRIDIUM 33 DEB", "group": "iridium-33-debris", "lat": 85.53414061895535, "lon": 109.32117698869175, "alt_km": 725.3483540840116, "timestamp": "2025-12-20T05:41:50.415726+00:00", "meta": {"OBJECT_NAME": "IRIDIUM 33 DEB", "OBJECT_ID": "1997-051AP", "EPOCH": "2025-12-19T15:02:56.916960", "MEAN_MOTION": 14.45884184, "ECCENTRICITY": 0.00222, "INCLINATION": 86.3744, "RA_OF_ASC_NODE": 55.309, "ARG_OF_PERICENTER": 156.0284, "MEAN_ANOMALY": 356.6919, "EPHEMERIS_TYPE": 0, "CLASSIFICATION_TYPE": "U", "NORAD_CAT_ID": 33870, "ELEMENT_SET_NO": 999, "REV_AT_EPOCH": 88236, "BSTAR": 0.00048894, "MEAN_MOTION_DOT": 1.762e-05, "MEAN_MOTION_DDOT": 0}, "tle": {"line1": "1 33870U 97051AP  25353.62704765  .00001762  00000+0  48894-3 0  9999", "line2": "2 33870  86.3744  55.3090 0022200 156.0284 356.6919 14.45884184882362"}}, "geometry": {"type": "Point", "coordinates": [109.32117698869175, 85.53414061895535]}}, {"type": "Feature", "properties": {"norad_id": 33881, "name": "IRIDIUM 33 DEB", "group": "iridium-33-debris", "lat": -66.69424649771321, "lon": -68.08031250416843, "alt_km": 715.9591178208075, "timestamp": "2025-12-20T05:41:50.415737+00:00", "meta": {"OBJECT_NAME": "IRIDIUM 33 DEB", "OBJECT_ID": "1997-051BA", "EPOCH": "2025-12-18T18:38:37.341312", "MEAN_MOTION": 14.56678227, "ECCENTRICITY": 0.00614608, "INCLINATION": 86.3861, "RA_OF_ASC_NODE": 104.1184, "ARG_OF_PERICENTER": 155.2089, "MEAN_ANOMALY": 356.6087, "EPHEMERIS_TYPE": 0, "CLASSIFICATION_TYPE": "U", "NORAD_CAT_ID": 33881, "ELEMENT_SET_NO": 999, "REV_AT_EPOCH": 87588, "BSTAR": 0.0015458281, "MEAN_MOTION_DOT": 7.103e-05, "MEAN_MOTION_DDOT": 0}, "tle": {"line1": "1 33881U 97051BA  25352.77682108  .00007103  00000+0  15458-2 0  9996", "line2": "2 33881  86.3861 104.1184 0061460 155.2089 356.6087 14.56678227875882"}}, "geometry": {"type": "Point", "coordinates": [-68.08031250416843, -66.69424649771321]}}, {"type": "Feature", "properties": {"norad_id": 33884, "name": "IRIDIUM 33 DEB", "group": "iridium-33-debris", "lat": 35.01976508239329, "lon": 8.984066296661325, "alt_km": 635.9432921159105, "timestamp": "2025-12-20T05:41:50.415748+00:00", "meta": {"OBJECT_NAME": "IRIDIUM 33 DEB", "OBJECT_ID": "1997-051BD", "EPOCH": "2025-12-19T06:51:00.174816", "MEAN_MOTION": 14.77551072, "ECCENTRICITY": 0.0009195, "INCLINATION": 86.3691, "RA_OF_ASC_NODE": 6.8636, "ARG_OF_PERICENTER": 298.3453, "MEAN_ANOMALY": 76.3453, "EPHEMERIS_TYPE": 0, "CLASSIFICATION_TYPE": "U", "NORAD_CAT_ID": 33884, "ELEMENT_SET_NO": 999, "REV_AT_EPOCH": 88944, "BSTAR": 0.001004, "MEAN_MOTION_DOT": 7.196e-05, "MEAN_MOTION_DDOT": 0}, "tle": {"line1": "1 33884U 97051BD  25353.28541869  .00007196  00000+0  10040-2 0  9998", "line2": "2 33884  86.3691   6.8636 0009195 298.3453  76.3453 14.77551072889448"}}, "geometry": {"type": "Point", "coordinates": [8.984066296661325, 35.01976508239329]}}, {"type": "Feature", "properties": {"norad_id": 33886, "name": "IRIDIUM 33 DEB", "group": "iridium-33-debris", "lat": -75.691805183445, "lon": 49.71194660889974, "alt_km": 775.6571869200461, "timestamp": "2025-12-20T05:41:50.415759+00:00", "meta": {"OBJECT_NAME": "IRIDIUM 33 DEB", "OBJECT_ID": "1997-051BF", "EPOCH": "2025-12-19T06:57:09.921024", "MEAN_MOTION": 14.36059311, "ECCENTRICITY": 0.0012851, "INCLINATION": 86.3826, "RA_OF_ASC_NODE": 64.4719, "ARG_OF_PERICENTER": 218.0066, "MEAN_ANOMALY": 209.4542, "EPHEMERIS_TYPE": 0, "CLASSIFICATION_TYPE": "U", "NORAD_CAT_ID": 33886, "ELEMENT_SET_NO": 999, "REV_AT_EPOCH": 88146, "BSTAR": 0.00014374, "MEAN_MOTION_DOT": 4.38e-06, "MEAN_MOTION_DDOT": 0}, "tle": {"line1": "1 33886U 97051BF  25353.28969816  .00000438  00000+0  14374-3 0  9993", "line2": "2 33886  86.3826  64.4719 0012851 218.0066 209.4542 14.36059311881460"}}, "geometry": {"type": "Point", "coordinates": [49.71194660889974, -75.691805183445]}}, {"type": "Feature", "properties": {"norad_id": 33887, "name": "IRIDIUM 33 DEB", "group": "iridium-33-debris", "lat": -71.23211032862226, "lon": -168.87328907504215, "alt_km": 772.9451936840214, "timestamp": "2025-12-20T05:41:50.415770+00:00", "meta": {"OBJECT_NAME": "IRIDIUM 33 DEB", "OBJECT_ID": "1997-051BG", "EPOCH": "2025-12-19T10:45:03.204000", "MEAN_MOTION": 14.37226728, "ECCENTRICITY": 0.0005123, "INCLINATION": 86.3041, "RA_OF_ASC_NODE": 0.5012, "ARG_OF_PERICENTER": 199.3263, "MEAN_ANOMALY": 290.2055, "EPHEMERIS_TYPE": 0, "CLASSIFICATION_TYPE": "U", "NORAD_CAT_ID": 33887, "ELEMENT_SET_NO": 999, "REV_AT_EPOCH": 88261, "BSTAR": 0.00011138, "MEAN_MOTION_DOT": 3.51e-06, "MEAN_MOTION_DDOT": 0}, "tle": {"line1": "1 33887U 97051BG  25353.44795375  .00000351  00000+0  11138-3 0  9998", "line2": "2 33887  86.3041   0.5012 0005123 199.3263 290.2055 14.37226728882615"}}, "geometry": {"type": "Point", "coordinates": [-168.87328907504215, -71.23211032862226]}}, {"type": "Feature", "properties": {"norad_id": 33953, "name": "IRIDIUM 33 DEB", "group": "iridium-33-debris", "lat": -55.81594984981898, "lon": -124.13270644045225, "alt_km": 726.92104186917, "timestamp": "2025-12-20T05:41:50.415781+00:00", "meta": {"OBJECT_NAME": "IRIDIUM 33 DEB", "OBJECT_ID": "1997-051BN", "EPOCH": "2025-12-19T10:33:02.314368", "MEAN_MOTION": 14.55384025, "ECCENTRICITY": 0.0018005, "INCLINATION": 86.3844, "RA_OF_ASC_NODE": 50.8718, "ARG_OF_PERICENTER": 82.4183, "MEAN_ANOMALY": 296.2266, "EPHEMERIS_TYPE": 0, "CLASSIFICATION_TYPE": "U", "NORAD_CAT_ID": 33953, "ELEMENT_SET_NO": 999, "REV_AT_EPOCH": 88401, "BSTAR": 0.0007531, "MEAN_MOTION_DOT": 3.296e-05, "MEAN_MOTION_DDOT": 0}, "tle": {"line1": "1 33953U 97051BN  25353.43961012  .00003296  00000+0  75310-3 0  9997", "line2": "2 33953  86.3844  50.8718 0018005  82.4183 296.2266 14.55384025884018"}}, "geometry": {"type": "Point", "coordinates": [-124.13270644045225, -55.81594984981898]}}, {"type": "Feature", "properties": {"norad_id": 33960, "name": "IRIDIUM 33 DEB", "group": "iridium-33-debris", "lat": 50.41802563434807, "lon": 101.43277528962483, "alt_km": 606.6522053065582, "timestamp": "2025-12-20T05:41:50.415792+00:00", "meta": {"OBJECT_NAME": "IRIDIUM 33 DEB", "OBJECT_ID": "1997-051BV", "EPOCH": "2025-12-18T21:04:17.238720", "MEAN_MOTION": 14.85489781, "ECCENTRICITY": 0.00074649, "INCLINATION": 86.254, "RA_OF_ASC_NODE": 286.6192, "ARG_OF_PERICENTER": 52.1098, "MEAN_ANOMALY": 12.0352, "EPHEMERIS_TYPE": 0, "CLASSIFICATION_TYPE": "U", "NORAD_CAT_ID": 33960, "ELEMENT_SET_NO": 999, "REV_AT_EPOCH": 88958, "BSTAR": 0.0022083229, "MEAN_MOTION_DOT": 0.0001912, "MEAN_MOTION_DDOT": 0}, "tle": {"line1": "1 33960U 97051BV  25352.87797730  .00019120  00000+0  22083-2 0  9997", "line2": "2 33960  86.2540 286.6192 0007464  52.1098  12.0352 14.85489781889584"}}, "geometry": {"type": "Point", "coordinates": [101.43277528962483, 50.41802563434807]}}, {"type": "Feature", "properties": {"norad_id": 33966, "name": "IRIDIUM 33 DEB", "group": "iridium-33-debris", "lat": -26.93653991748378, "lon": -135.35291862762273, "alt_km": 728.409100625152, "timestamp": "2025-12-20T05:41:50.415803+00:00", "meta": {"OBJECT_NAME": "IRIDIUM 33 DEB", "OBJECT_ID": "1997-051CB", "EPOCH": "2025-12-19T21:16:37.538112", "MEAN_MOTION": 14.49619734, "ECCENTRICITY": 0.00082223, "INCLINATION": 86.3915, "RA_OF_ASC_NODE": 42.9601, "ARG_OF_PERICENTER": 165.4982, "MEAN_ANOMALY": 11.5705, "EPHEMERIS_TYPE": 0, "CLASSIFICATION_TYPE": "U", "NORAD_CAT_ID": 33966, "ELEMENT_SET_NO": 999, "REV_AT_EPOCH": 88545, "BSTAR": 0.00035428636, "MEAN_MOTION_DOT": 1.381e-05, "MEAN_MOTION_DDOT": 0}, "tle": {"line1": "1 33966U 97051CB  25353.88654558  .00001381  00000+0  35429-3 0  9994", "line2": "2 33966  86.3915  42.9601 0008222 165.4982  11.5705 14.49619734885459"}}, "geometry": {"type": "Point", "coordinates": [-135.35291862762273, -26.93653991748378]}}, {"type": "Feature", "properties": {"norad_id": 34071, "name": "IRIDIUM 33 DEB", "group": "iridium-33-debris", "lat": -86.33495309726764, "lon": -79.11639275952395, "alt_km": 741.8224471278781, "timestamp": "2025-12-20T05:41:50.415814+00:00", "meta": {"OBJECT_NAME": "IRIDIUM 33 DEB", "OBJECT_ID": "1997-051CE", "EPOCH": "2025-12-19T18:30:57.590496", "MEAN_MOTION": 14.49493085, "ECCENTRICITY": 0.00099492, "INCLINATION": 86.3449, "RA_OF_ASC_NODE": 14.7718, "ARG_OF_PERICENTER": 88.5882, "MEAN_ANOMALY": 271.6461, "EPHEMERIS_TYPE": 0, "CLASSIFICATION_TYPE": "U", "NORAD_CAT_ID": 34071, "ELEMENT_SET_NO": 999, "REV_AT_EPOCH": 88436, "BSTAR": 0.00041371543, "MEAN_MOTION_DOT": 1.605e-05, "MEAN_MOTION_DDOT": 0}, "tle": {"line1": "1 34071U 97051CE  25353.77149989  .00001605  00000+0  41372-3 0  9990", "line2": "2 34071  86.3449  14.7718 0009949  88.5882 271.6461 14.49493085884362"}}, "geometry": {"type": "Point", "coordinates": [-79.11639275952395, -86.33495309726764]}}]}